NORAD_CAT_ID,OBJECT_NAME,OBJECT_TYPE,EPOCH,MEAN_MOTION,ECCENTRICITY,INCLINATION,RA_OF_ASC_NODE,ARG_OF_PERICENTER,MEAN_ANOMALY,BSTAR,MEAN_MOTION_DOT,MEAN_MOTION_DDOT,TLE_LINE0,TLE_LINE1,TLE_LINE2,SEMIMAJOR_AXIS,PERIOD,APOGEE,PERIGEE,DECAYED
54167.0,STARLINK-5243,PAYLOAD,2024-08-21 19:35:12,15.08835815,0.0001163,53.2173,29.7146,90.1633,269.9492,8.1151e-05,1.004e-05,0.0,0 STARLINK-5243,1 54167U 22141L   24234.81611430  .00001004  00000-0  81151-4 0  9997,2 54167  53.2173  29.7146 0001163  90.1633 269.9492 15.08835815100442,6917.893,95.438,540.563,538.954,0.0
